[{"OBJECT_NAME":"COSMOS 2481","OBJECT_ID":"2012-041A","EPOCH":"2026-03-09T22:15:03.529152","MEAN_MOTION":12.42432937,"ECCENTRICITY":0.00175515,"INCLINATION":82.4753,"RA_OF_ASC_NODE":137.1218,"ARG_OF_PERICENTER":292.9397,"MEAN_ANOMALY":66.983,"EPHEMERIS_TYPE":0,"CLASSIFICATION_TYPE":"U","NORAD_CAT_ID":38733,"ELEMENT_SET_NO":999,"REV_AT_EPOCH":61742,"BSTAR":0.00013507118,"MEAN_MOTION_DOT":2.8e-7,"MEAN_MOTION_DDOT":0},{"OBJECT_NAME":"COSMOS 795","OBJECT_ID":"1976-008E","EPOCH":"2026-03-09T19:49:55.046784","MEAN_MOTION":12.45792776,"ECCENTRICITY":0.00202234,"INCLINATION":74.0582,"RA_OF_ASC_NODE":325.7784,"ARG_OF_PERICENTER":196.4401,"MEAN_ANOMALY":163.5994,"EPHEMERIS_TYPE":0,"CLASSIFICATION_TYPE":"U","NORAD_CAT_ID":8611,"ELEMENT_SET_NO":999,"REV_AT_EPOCH":27885,"BSTAR":6.5034036e-5,"MEAN_MOTION_DOT":-6.0e-8,"MEAN_MOTION_DDOT":0}]
